OBJECT_NAME,OBJECT_ID,EPOCH,MEAN_MOTION,ECCENTRICITY,INCLINATION,RA_OF_ASC_NODE,ARG_OF_PERICENTER,MEAN_ANOMALY,EPHEMERIS_TYPE,CLASSIFICATION_TYPE,NORAD_CAT_ID,ELEMENT_SET_NO,REV_AT_EPOCH,BSTAR,MEAN_MOTION_DOT,MEAN_MOTION_DDOT
TIANMU-1 21,2023-208C,2026-06-19T20:31:13.815264,15.35116132,.0005831,97.4509,290.4986,312.1369,47.9378,0,U,58662,999,13797,.22781E-3,.7685E-4,0
TIANMU-1 22,2023-208D,2026-06-19T19:37:27.184800,15.31088416,.0002959,97.4505,287.0648,354.0784,6.0422,0,U,58663,999,13773,.20709E-3,.6141E-4,0
TIANMU-1 15,2024-004A,2026-06-19T20:25:11.399232,15.27045556,.0006423,97.4671,357.0414,352.7370,7.3775,0,U,58700,999,13618,.16935E-3,.4421E-4,0
TIANMU-1 16,2024-004B,2026-06-19T20:10:22.916928,15.26770540,.0005538,97.4619,356.2648,358.4807,1.6414,0,U,58701,999,13618,.17019E-3,.4405E-4,0
TIANMU-1 17,2024-004C,2026-06-19T19:49:26.241024,15.26769656,.0005259,97.4647,356.7363,5.4276,354.7018,0,U,58702,999,13617,.16946E-3,.4386E-4,0
TIANMU-1 18,2024-004D,2026-06-19T20:49:09.705216,15.27027323,.000376,97.4664,357.0349,6.6971,353.4318,0,U,58703,999,13618,.17057E-3,.4449E-4,0
INSAT-3DS,2024-033A,2026-06-19T18:23:54.875904,1.00271097,.0001136,0.0468,106.6851,330.0314,189.3438,0,U,58990,999,4709,0,-.162E-5,0
METEOR-M2 4,2024-039A,2026-06-19T20:33:15.619392,14.22429774,.0007435,98.7011,130.1209,153.6235,206.5323,0,U,59051,999,11964,.21684E-4,.5E-7,0
GOES 19,2024-119A,2026-06-19T09:05:52.728864,1.00309682,.00023066,0.0249,218.9773,265.9040,204.0106,0,U,60133,999,698,0,-.258E-5,0
MTG-S1,2025-143A,2026-06-18T09:28:59.334816,1.00323776,.0003993,0.6020,339.2639,77.2395,348.9838,0,U,64723,999,343,0,-.28E-6,0
METOP-SGA1,2025-172A,2026-06-16T03:40:47.624736,14.21509720,.0000902,98.6644,226.8998,93.8213,266.3067,0,U,65159,999,4364,.41999845E-4,.49E-6,0
FENGYUN 3H,2025-219A,2026-06-19T17:15:01.982016,14.19920745,.0001588,98.6767,111.4387,75.3332,284.8021,0,U,65815,999,3774,.35606E-4,.32E-6,0
