TIANMU-1 21             
1 58662U 23208C   26170.85502101  .00007685  00000+0  22781-3 0  9998
2 58662  97.4509 290.4986 0005831 312.1369  47.9378 15.35116132137976
TIANMU-1 22             
1 58663U 23208D   26170.81767575  .00006141  00000+0  20709-3 0  9997
2 58663  97.4505 287.0648 0002959 354.0784   6.0422 15.31088416137733
TIANMU-1 15             
1 58700U 24004A   26170.85082638  .00004421  00000+0  16935-3 0  9993
2 58700  97.4671 357.0414 0006423 352.7370   7.3775 15.27045556136180
TIANMU-1 16             
1 58701U 24004B   26170.84054302  .00004405  00000+0  17019-3 0  9996
2 58701  97.4619 356.2648 0005538 358.4807   1.6414 15.26770540136181
TIANMU-1 17             
1 58702U 24004C   26170.82599816  .00004386  00000+0  16946-3 0  9995
2 58702  97.4647 356.7363 0005259   5.4276 354.7018 15.26769656136178
TIANMU-1 18             
1 58703U 24004D   26170.86747344  .00004449  00000+0  17057-3 0  9995
2 58703  97.4664 357.0349 0003760   6.6971 353.4318 15.27027323136185
INSAT-3DS               
1 58990U 24033A   26170.76660736 -.00000162  00000+0  00000+0 0  9998
2 58990   0.0468 106.6851 0001136 330.0314 189.3438  1.00271097 47096
METEOR-M2 4             
1 59051U 24039A   26170.85643078  .00000005  00000+0  21684-4 0  9994
2 59051  98.7011 130.1209 0007435 153.6235 206.5323 14.22429774119642
GOES 19                 
1 60133U 24119A   26170.37908251 -.00000258  00000+0  00000+0 0  9995
2 60133   0.0249 218.9773 0002306 265.9040 204.0106  1.00309682  6989
MTG-S1                  
1 64723U 25143A   26169.39513119 -.00000028  00000+0  00000+0 0  9992
2 64723   0.6020 339.2639 0003993  77.2395 348.9838  1.00323776  3436
METOP-SGA1              
1 65159U 25172A   26167.15332899  .00000049  00000+0  42000-4 0  9997
2 65159  98.6644 226.8998 0000902  93.8213 266.3067 14.21509720 43644
FENGYUN 3H              
1 65815U 25219A   26170.71877294  .00000032  00000+0  35606-4 0  9993
2 65815  98.6767 111.4387 0001588  75.3332 284.8021 14.19920745 37748
